1 43286U 18035A   23119.02060979  .00000116  00000-0  00000+0 0  9996
2 43286  28.9642  92.2412 0019134 187.8914 359.0100  1.00274989 18582
1 43286U 18035A   23119.49979787  .00000118  00000-0  00000-0 0  9996
2 43286  28.9652  92.2338 0019111 187.9436 171.9489  1.00275140 18597
